NORAD_CAT_ID,OBJECT_NAME,OBJECT_TYPE,EPOCH,MEAN_MOTION,ECCENTRICITY,INCLINATION,RA_OF_ASC_NODE,ARG_OF_PERICENTER,MEAN_ANOMALY,BSTAR,MEAN_MOTION_DOT,MEAN_MOTION_DDOT,TLE_LINE0,TLE_LINE1,TLE_LINE2,SEMIMAJOR_AXIS,PERIOD,APOGEE,PERIGEE,DECAYED
52640.0,STARLINK-3977,PAYLOAD,2023-11-20 00:44:09,15.08838492,0.0001123,53.2185,73.0156,89.7221,270.3899,4.3125e-05,3.99e-06,0.0,0 STARLINK-3977,1 52640U 22052AU  23324.03066242  .00000399  00000-0  43125-4 0  9995,2 52640  53.2185  73.0156 0001123  89.7221 270.3899 15.08838492 84593,6917.885,95.438,540.527,538.973,0.0
52640.0,STARLINK-3977,PAYLOAD,2023-11-20 13:27:13,15.08846908,0.0001145,53.2186,70.6369,95.6086,264.5037,0.00014859,2.078e-05,0.0,0 STARLINK-3977,1 52640U 22052AU  23324.56057516  .00002078  00000-0  14859-3 0  9994,2 52640  53.2186  70.6369 0001145  95.6086 264.5037 15.08846908 84299,6917.859,95.437,540.516,538.932,0.0
52640.0,STARLINK-3977,PAYLOAD,2023-11-21 10:07:14,15.08840491,0.000112,53.2187,66.7716,89.3108,270.8012,7.4273e-05,8.94e-06,0.0,0 STARLINK-3977,1 52640U 22052AU  23325.42170005  .00000894  00000-0  74273-4 0  9990,2 52640  53.2187  66.7716 0001120  89.3108 270.8012 15.08840491 84801,6917.879,95.438,540.519,538.969,0.0
52640.0,STARLINK-3977,PAYLOAD,2023-11-21 13:18:00,15.08847184,0.0001123,53.2188,66.1769,89.9009,270.2112,0.00013175,1.81e-05,0.0,0 STARLINK-3977,1 52640U 22052AU  23325.55417472  .00001810  00000-0  13175-3 0  9998,2 52640  53.2188  66.1769 0001123  89.9009 270.2112 15.08847184 84444,6917.858,95.437,540.5,538.947,0.0
52640.0,STARLINK-3977,PAYLOAD,2023-11-21 18:04:09,15.08857798,0.0001186,53.2188,65.2847,93.6862,266.4266,0.00019821,2.87e-05,0.0,0 STARLINK-3977,1 52640U 22052AU  23325.75288659  .00002870  00000-0  19821-3 0  9994,2 52640  53.2188  65.2847 0001186  93.6862 266.4266 15.08857798 84853,6917.826,95.436,540.511,538.871,0.0
52640.0,STARLINK-3977,PAYLOAD,2023-11-22 11:33:24,15.08852866,0.0001398,53.2177,62.0143,85.2087,274.9065,0.00018909,2.724e-05,0.0,0 STARLINK-3977,1 52640U 22052AU  23326.48153147  .00002724  00000-0  18909-3 0  9992,2 52640  53.2177  62.0143 0001398  85.2087 274.9065 15.08852866 84960,6917.841,95.437,540.673,538.739,0.0
52640.0,STARLINK-3977,PAYLOAD,2023-11-22 13:08:47,15.08860127,0.0001553,53.2185,61.7162,104.8526,255.2638,0.00026166,3.881e-05,0.0,0 STARLINK-3977,1 52640U 22052AU  23326.54776720  .00003881  00000-0  26166-3 0  9996,2 52640  53.2185  61.7162 0001553 104.8526 255.2638 15.08860127 84591,6917.819,95.436,540.758,538.61,0.0
52640.0,STARLINK-3977,PAYLOAD,2023-11-23 11:24:11,15.08832529,0.0001525,53.2185,57.5529,111.4909,248.6246,-0.00011818,-2.168e-05,0.0,0 STARLINK-3977,1 52640U 22052AU  23327.47513837 -.00002168  00000-0 -11818-3 0  9994,2 52640  53.2185  57.5529 0001525 111.4909 248.6246 15.08832529 85114,6917.903,95.438,540.823,538.713,0.0
52640.0,STARLINK-3977,PAYLOAD,2023-11-23 12:59:35,15.08832333,0.0001355,53.2181,57.2553,104.6846,255.4296,-0.00016005,-2.834e-05,0.0,0 STARLINK-3977,1 52640U 22052AU  23327.54137854 -.00002834  00000-0 -16005-3 0  9996,2 52640  53.2181  57.2553 0001355 104.6846 255.4296 15.08832333 84741,6917.904,95.438,540.706,538.831,0.0
52640.0,STARLINK-3977,PAYLOAD,2023-11-24 12:50:22,15.08835271,0.0001638,53.2193,52.7953,104.2289,255.8885,-4.1099e-05,-9.42e-06,0.0,0 STARLINK-3977,1 52640U 22052AU  23328.53498642 -.00000942  00000-0 -41099-4 0  9991,2 52640  53.2193  52.7953 0001638 104.2289 255.8885 15.08835271 84897,6917.895,95.438,540.893,538.627,0.0
52640.0,STARLINK-3977,PAYLOAD,2023-11-24 17:36:31,15.0884144,0.0001765,53.2185,51.9013,114.9017,245.2159,0.0001059,1.398e-05,0.0,0 STARLINK-3977,1 52640U 22052AU  23328.73370342  .00001398  00000-0  10590-3 0  9994,2 52640  53.2185  51.9013 0001765 114.9017 245.2159 15.08841440 85303,6917.876,95.437,540.962,538.52,0.0
52640.0,STARLINK-3977,PAYLOAD,2023-11-25 11:05:46,15.08838258,0.0001646,53.2185,48.63,107.5233,252.5939,0.00025858,3.829e-05,0.0,0 STARLINK-3977,1 52640U 22052AU  23329.46234870  .00003829  00000-0  25858-3 0  9994,2 52640  53.2185  48.6300 0001646 107.5233 252.5939 15.08838258 85031,6917.886,95.438,540.889,538.612,0.0
52640.0,STARLINK-3977,PAYLOAD,2023-11-25 15:51:55,15.08847109,0.0002291,53.2188,47.7317,129.7944,230.325,0.00031763,4.772e-05,0.0,0 STARLINK-3977,1 52640U 22052AU  23329.66106306  .00004772  00000-0  31763-3 0  9998,2 52640  53.2188  47.7317 0002291 129.7944 230.3250 15.08847109 85062,6917.859,95.437,541.309,538.139,0.0
52640.0,STARLINK-3977,PAYLOAD,2023-11-26 10:56:32,15.08862303,0.0002386,53.2191,44.1638,130.9674,229.1525,0.00027661,4.119e-05,0.0,0 STARLINK-3977,1 52640U 22052AU  23330.45593076  .00004119  00000-0  27661-3 0  9998,2 52640  53.2191  44.1638 0002386 130.9674 229.1525 15.08862303 85561,6917.812,95.436,541.328,538.027,0.0
52640.0,STARLINK-3977,PAYLOAD,2023-11-26 14:07:18,15.0886337,0.0001813,53.2191,43.5753,70.8189,289.2999,0.00034256,5.171e-05,0.0,0 STARLINK-3977,1 52640U 22052AU  23330.58841277  .00005171  00000-0  34256-3 0  9998,2 52640  53.2191  43.5753 0001813  70.8189 289.2999 15.08863370 85207,6917.809,95.436,540.928,538.42,0.0
52640.0,STARLINK-3977,PAYLOAD,2023-11-27 12:22:45,15.08811667,0.0001673,53.22,39.4086,104.3276,255.7902,-0.00045902,-7.58e-05,0.0,0 STARLINK-3977,1 52640U 22052AU  23331.51579958 -.00007580  00000-0 -45902-3 0  9994,2 52640  53.2200  39.4086 0001673 104.3276 255.7902 15.08811667 85726,6917.967,95.439,540.989,538.675,0.0
52640.0,STARLINK-3977,PAYLOAD,2023-11-27 13:58:08,15.08812719,0.0001657,53.2198,39.1109,105.7552,254.3623,-0.00040248,-6.683e-05,0.0,0 STARLINK-3977,1 52640U 22052AU  23331.58204037 -.00006683  00000-0 -40248-3 0  9995,2 52640  53.2198  39.1109 0001657 105.7552 254.3623 15.08812719 85352,6917.964,95.439,540.975,538.682,0.0
52640.0,STARLINK-3977,PAYLOAD,2023-11-28 10:38:09,15.08838289,0.0001888,53.2185,35.2571,88.4814,271.6395,0.00027166,4.038e-05,0.0,0 STARLINK-3977,1 52640U 22052AU  23332.44316130  .00004038  00000-0  27166-3 0  9993,2 52640  53.2185  35.2571 0001888  88.4814 271.6395 15.08838289 85866,6917.886,95.438,541.057,538.445,0.0
52640.0,STARLINK-3977,PAYLOAD,2023-11-29 10:28:56,15.08850991,0.0001987,53.2183,30.7964,69.1205,291.0,0.00054716,8.433e-05,0.0,0 STARLINK-3977,1 52640U 22052AU  23333.43676165  .00008433  00000-0  54716-3 0  9994,2 52640  53.2183  30.7964 0001987  69.1205 291.0000 15.08850991 85638,6917.847,95.437,541.086,538.337,0.0
52640.0,STARLINK-3977,PAYLOAD,2023-11-30 03:58:09,15.08853202,0.0001549,53.2184,27.5221,96.812,263.3049,8.911e-05,1.131e-05,0.0,0 STARLINK-3977,1 52640U 22052AU  23334.16539223  .00001131  00000-0  89110-4 0  9993,2 52640  53.2184  27.5221 0001549  96.8120 263.3049 15.08853202 86124,6917.84,95.437,540.777,538.633,0.0
52640.0,STARLINK-3977,PAYLOAD,2023-12-01 03:48:57,15.08842672,0.0001782,53.2193,23.067,96.297,263.8225,-0.00012792,-2.324e-05,0.0,0 STARLINK-3977,1 52640U 22052AU  23335.15899405 -.00002324  00000-0 -12792-3 0  9992,2 52640  53.2193  23.0670 0001782  96.2970 263.8225 15.08842672 86275,6917.872,95.437,540.97,538.504,0.0
52640.0,STARLINK-3977,PAYLOAD,2023-12-01 10:10:29,15.08846197,0.0001703,53.2193,21.8771,94.2688,265.8499,-4.7476e-05,-1.044e-05,0.0,0 STARLINK-3977,1 52640U 22052AU  23335.42395194 -.00001044  00000-0 -47476-4 0  9994,2 52640  53.2193  21.8771 0001703  94.2688 265.8499 15.08846197 85933,6917.861,95.437,540.905,538.548,0.0
52640.0,STARLINK-3977,PAYLOAD,2023-12-01 22:53:34,15.08849902,0.0001629,53.2185,19.496,98.2995,261.8181,0.00021316,3.107e-05,0.0,0 STARLINK-3977,1 52640U 22052AU  23335.95386799  .00003107  00000-0  21316-3 0  9997,2 52640  53.2185  19.4960 0001629  98.2995 261.8181 15.08849902 86391,6917.85,95.437,540.842,538.588,0.0
52640.0,STARLINK-3977,PAYLOAD,2023-12-02 10:01:14,15.08876348,0.0001783,53.2184,17.414,112.1768,247.9413,0.00063221,9.798e-05,0.0,0 STARLINK-3977,1 52640U 22052AU  23336.41753252  .00009798  00000-0  63221-3 0  9994,2 52640  53.2184  17.4140 0001783 112.1768 247.9413 15.08876348 86468,6917.769,95.435,540.868,538.401,0.0
52640.0,STARLINK-3977,PAYLOAD,2023-12-02 22:44:20,15.08842187,0.0002018,53.2193,15.0375,115.8851,244.2349,-3.4763e-05,-8.41e-06,0.0,0 STARLINK-3977,1 52640U 22052AU  23336.94746229 -.00000841  00000-0 -34763-4 0  9990,2 52640  53.2193  15.0375 0002018 115.8851 244.2349 15.08842187 86548,6917.874,95.437,541.135,538.343,0.0
52640.0,STARLINK-3977,PAYLOAD,2023-12-03 11:27:27,15.08801149,0.0001684,53.2182,12.6568,69.8796,290.2377,-0.00079849,-0.0001296,0.0,0 STARLINK-3977,1 52640U 22052AU  23337.47740111 -.00012960  00000-0 -79849-3 0  9991,2 52640  53.2182  12.6568 0001684  69.8796 290.2377 15.08801149 86621,6917.999,95.44,541.029,538.699,0.0
52640.0,STARLINK-3977,PAYLOAD,2023-12-03 13:02:50,15.08791164,0.0001456,53.2171,12.3542,78.9889,281.1267,-0.00044239,-7.312e-05,0.0,0 STARLINK-3977,1 52640U 22052AU  23337.54364255 -.00007312  00000-0 -44239-3 0  9990,2 52640  53.2171  12.3542 0001456  78.9889 281.1267 15.08791164 86250,6918.03,95.441,540.902,538.887,0.0
52640.0,STARLINK-3977,PAYLOAD,2023-12-04 01:45:57,15.08810392,0.0001602,53.2166,9.9749,65.2011,294.9147,0.0012947,0.00020361,0.0,0 STARLINK-3977,1 52640U 22052AU  23338.07357866  .00020361  00000-0  12947-2 0  9996,2 52640  53.2166   9.9749 0001602  65.2011 294.9147 15.08810392 86719,6917.971,95.439,540.944,538.728,0.0
52640.0,STARLINK-3977,PAYLOAD,2023-12-04 09:42:53,15.08835105,0.0001648,53.2169,8.489,69.5665,290.5504,0.0015272,0.00024098,0.0,0 STARLINK-3977,1 52640U 22052AU  23338.40478022  .00024098  00000-0  15272-2 0  9996,2 52640  53.2169   8.4890 0001648  69.5665 290.5504 15.08835105 86768,6917.895,95.438,540.9,538.62,0.0
52640.0,STARLINK-3977,PAYLOAD,2023-12-05 09:33:39,15.08879874,0.000177,53.2169,4.0291,69.3274,290.7908,0.0015302,0.00024176,0.0,0 STARLINK-3977,1 52640U 22052AU  23339.39836836  .00024176  00000-0  15302-2 0  9997,2 52640  53.2169   4.0291 0001770  69.3274 290.7908 15.08879874 86531,6917.759,95.435,540.848,538.399,0.0
